{"type": "FeatureCollection", "features": [ {"type": "Feature", "properties": {"norad_id": 66905, "name": "STARLINK-36075", "group": "last-30-days", "lat": -25.87035254017472, "lon": 46.39671298701736, "alt_km": 297.96944549737236, "timestamp": "2025-12-13T22:39:28.446591+00:00", "meta": {"OBJECT_NAME": "STARLINK-36075", "OBJECT_ID": "2025-283AD", "EPOCH": "2025-12-13T06:00:02.000160", "MEAN_MOTION": 15.94659835, "ECCENTRICITY": 9.307e-05, "INCLINATION": 53.1545, "RA_OF_ASC_NODE": 71.2675, "ARG_OF_PERICENTER": 75.4187, "MEAN_ANOMALY": 227.0866, "EPHEMERIS_TYPE": 0, "CLASSIFICATION_TYPE": "U", "NORAD_CAT_ID": 66905, "ELEMENT_SET_NO": 999, "REV_AT_EPOCH": 251, "BSTAR": -0.0033870476, "MEAN_MOTION_DOT": -0.01321325, "MEAN_MOTION_DDOT": 0.00052113152}, "tle": {"line1": "1 66905U 25283AD  25347.25002315 -.01321325  52113-3 -33870-2 0  9992", "line2": "2 66905  53.1545  71.2675 0000930  75.4187 227.0866 15.94659835  2517"}}, "geometry": {"type": "Point", "coordinates": [46.39671298701736, -25.87035254017472]}}, {"type": "Feature", "properties": {"norad_id": 66906, "name": "1998-067XS", "group": "last-30-days", "lat": -39.516211551242826, "lon": 95.63507923284084, "alt_km": 419.3848520504407, "timestamp": "2025-12-13T22:39:28.446604+00:00", "meta": {"OBJECT_NAME": "1998-067XS", "OBJECT_ID": "1998-067XS", "EPOCH": "2025-12-12T17:30:10.785600", "MEAN_MOTION": 15.50562979, "ECCENTRICITY": 0.00036025, "INCLINATION": 51.6293, "RA_OF_ASC_NODE": 142.4703, "ARG_OF_PERICENTER": 202.1444, "MEAN_ANOMALY": 157.939, "EPHEMERIS_TYPE": 0, "CLASSIFICATION_TYPE": "U", "NORAD_CAT_ID": 66906, "ELEMENT_SET_NO": 999, "REV_AT_EPOCH": 161, "BSTAR": 0.00063717141, "MEAN_MOTION_DOT": 0.00036816, "MEAN_MOTION_DDOT": 0}, "tle": {"line1": "1 66906U 98067XS  25346.72929150  .00036816  00000+0  63717-3 0  9992", "line2": "2 66906  51.6293 142.4703 0003602 202.1444 157.9390 15.50562979  1615"}}, "geometry": {"type": "Point", "coordinates": [95.63507923284084, -39.516211551242826]}}, {"type": "Feature", "properties": {"norad_id": 66907, "name": "1998-067XT", "group": "last-30-days", "lat": -26.74716637446369, "lon": 112.86826396352194, "alt_km": 415.56165994093317, "timestamp": "2025-12-13T22:39:28.446615+00:00", "meta": {"OBJECT_NAME": "1998-067XT", "OBJECT_ID": "1998-067XT", "EPOCH": "2025-12-12T17:26:16.026432", "MEAN_MOTION": 15.5143678, "ECCENTRICITY": 0.00044769, "INCLINATION": 51.6298, "RA_OF_ASC_NODE": 142.4529, "ARG_OF_PERICENTER": 226.787, "MEAN_ANOMALY": 133.2746, "EPHEMERIS_TYPE": 0, "CLASSIFICATION_TYPE": "U", "NORAD_CAT_ID": 66907, "ELEMENT_SET_NO": 999, "REV_AT_EPOCH": 161, "BSTAR": 0.0013978666, "MEAN_MOTION_DOT": 0.0008442, "MEAN_MOTION_DDOT": 0}, "tle": {"line1": "1 66907U 98067XT  25346.72657438  .00084420  00000+0  13979-2 0  9998", "line2": "2 66907  51.6298 142.4529 0004476 226.7870 133.2746 15.51436780  1615"}}, "geometry": {"type": "Point", "coordinates": [112.86826396352194, -26.74716637446369]}}, {"type": "Feature", "properties": {"norad_id": 66908, "name": "1998-067XU", "group": "last-30-days", "lat": -25.094069344440896, "lon": 114.61962927600325, "alt_km": 415.1681437378693, "timestamp": "2025-12-13T22:39:28.446625+00:00", "meta": {"OBJECT_NAME": "1998-067XU", "OBJECT_ID": "1998-067XU", "EPOCH": "2025-12-13T07:20:31.203744", "MEAN_MOTION": 15.51634533, "ECCENTRICITY": 0.00044658, "INCLINATION": 51.6298, "RA_OF_ASC_NODE": 139.5715, "ARG_OF_PERICENTER": 229.458, "MEAN_ANOMALY": 130.6021, "EPHEMERIS_TYPE": 0, "CLASSIFICATION_TYPE": "U", "NORAD_CAT_ID": 66908, "ELEMENT_SET_NO": 999, "REV_AT_EPOCH": 170, "BSTAR": 0.0017363682, "MEAN_MOTION_DOT": 0.00106014, "MEAN_MOTION_DDOT": 0}, "tle": {"line1": "1 66908U 98067XU  25347.30591671  .00106014  00000+0  17364-2 0  9996", "line2": "2 66908  51.6298 139.5715 0004465 229.4580 130.6021 15.51634533  1709"}}, "geometry": {"type": "Point", "coordinates": [114.61962927600325, -25.094069344440896]}}, {"type": "Feature", "properties": {"norad_id": 66909, "name": "SILVERSAT", "group": "last-30-days", "lat": -23.27847437519128, "lon": 116.46306686838045, "alt_km": 414.8677027177546, "timestamp": "2025-12-13T22:39:28.446635+00:00", "meta": {"OBJECT_NAME": "SILVERSAT", "OBJECT_ID": "1998-067XV", "EPOCH": "2025-12-12T22:03:29.727648", "MEAN_MOTION": 15.51661311, "ECCENTRICITY": 0.00044499, "INCLINATION": 51.6297, "RA_OF_ASC_NODE": 141.4878, "ARG_OF_PERICENTER": 228.6613, "MEAN_ANOMALY": 131.3994, "EPHEMERIS_TYPE": 0, "CLASSIFICATION_TYPE": "U", "NORAD_CAT_ID": 66909, "ELEMENT_SET_NO": 999, "REV_AT_EPOCH": 164, "BSTAR": 0.0015570359, "MEAN_MOTION_DOT": 0.00094974, "MEAN_MOTION_DDOT": 0}, "tle": {"line1": "1 66909U 98067XV  25346.91909407  .00094974  00000+0  15570-2 0  9991", "line2": "2 66909  51.6297 141.4878 0004449 228.6613 131.3994 15.51661311  1645"}}, "geometry": {"type": "Point", "coordinates": [116.46306686838045, -23.27847437519128]}}, {"type": "Feature", "properties": {"norad_id": 66910, "name": "1998-067XW", "group": "last-30-days", "lat": -16.674755512841823, "lon": 122.64638232318902, "alt_km": 415.6880870072009, "timestamp": "2025-12-13T22:39:28.446645+00:00", "meta": {"OBJECT_NAME": "1998-067XW", "OBJECT_ID": "1998-067XW", "EPOCH": "2025-12-12T20:28:35.609952", "MEAN_MOTION": 15.51770354, "ECCENTRICITY": 0.00052525, "INCLINATION": 51.6298, "RA_OF_ASC_NODE": 141.7982, "ARG_OF_PERICENTER": 209.4111, "MEAN_ANOMALY": 150.6584, "EPHEMERIS_TYPE": 0, "CLASSIFICATION_TYPE": "U", "NORAD_CAT_ID": 66910, "ELEMENT_SET_NO": 999, "REV_AT_EPOCH": 163, "BSTAR": 0.001333891, "MEAN_MOTION_DOT": 0.00081487, "MEAN_MOTION_DDOT": 0}, "tle": {"line1": "1 66910U 98067XW  25346.85318993  .00081487  00000+0  13339-2 0  9996", "line2": "2 66910  51.6298 141.7982 0005252 209.4111 150.6584 15.51770354  1636"}}, "geometry": {"type": "Point", "coordinates": [122.64638232318902, -16.674755512841823]}}, {"type": "Feature", "properties": {"norad_id": 66911, "name": "1998-067XX", "group": "last-30-days", "lat": -12.729307970483909, "lon": 126.05346404106992, "alt_km": 414.5302871036829, "timestamp": "2025-12-13T22:39:28.446657+00:00", "meta": {"OBJECT_NAME": "1998-067XX", "OBJECT_ID": "1998-067XX", "EPOCH": "2025-12-12T17:22:05.659968", "MEAN_MOTION": 15.51996459, "ECCENTRICITY": 0.0004979, "INCLINATION": 51.6296, "RA_OF_ASC_NODE": 142.4333, "ARG_OF_PERICENTER": 210.3883, "MEAN_ANOMALY": 149.6819, "EPHEMERIS_TYPE": 0, "CLASSIFICATION_TYPE": "U", "NORAD_CAT_ID": 66911, "ELEMENT_SET_NO": 999, "REV_AT_EPOCH": 160, "BSTAR": 0.0015692424, "MEAN_MOTION_DOT": 0.00096916, "MEAN_MOTION_DDOT": 0}, "tle": {"line1": "1 66911U 98067XX  25346.72367662  .00096916  00000+0  15692-2 0  9997", "line2": "2 66911  51.6296 142.4333 0004979 210.3883 149.6819 15.51996459  1607"}}, "geometry": {"type": "Point", "coordinates": [126.05346404106992, -12.729307970483909]}}, {"type": "Feature", "properties": {"norad_id": 66912, "name": "1998-067XY", "group": "last-30-days", "lat": -31.51278438984038, "lon": 107.35377269328794, "alt_km": 416.7239117774343, "timestamp": "2025-12-13T22:39:28.446667+00:00", "meta": {"OBJECT_NAME": "1998-067XY", "OBJECT_ID": "1998-067XY", "EPOCH": "2025-12-12T17:27:38.564352", "MEAN_MOTION": 15.5112646, "ECCENTRICITY": 0.00045766, "INCLINATION": 51.63, "RA_OF_ASC_NODE": 142.4585, "ARG_OF_PERICENTER": 223.461, "MEAN_ANOMALY": 136.6019, "EPHEMERIS_TYPE": 0, "CLASSIFICATION_TYPE": "U", "NORAD_CAT_ID": 66912, "ELEMENT_SET_NO": 999, "REV_AT_EPOCH": 160, "BSTAR": 0.0011286003, "MEAN_MOTION_DOT": 0.00067169, "MEAN_MOTION_DDOT": 0}, "tle": {"line1": "1 66912U 98067XY  25346.72752968  .00067169  00000+0  11286-2 0  9998", "line2": "2 66912  51.6300 142.4585 0004576 223.4610 136.6019 15.51126460  1604"}}, "geometry": {"type": "Point", "coordinates": [107.35377269328794, -31.51278438984038]}}, {"type": "Feature", "properties": {"norad_id": 66913, "name": "2025-284A", "group": "last-30-days", "lat": 17.718109779526603, "lon": -54.86020278107619, "alt_km": 502.8357633860951, "timestamp": "2025-12-13T22:39:28.446679+00:00", "meta": {"OBJECT_NAME": "2025-284A", "OBJECT_ID": "2025-284A", "EPOCH": "2025-12-13T06:08:14.638272", "MEAN_MOTION": 15.18984004, "ECCENTRICITY": 0.00120355, "INCLINATION": 80.4043, "RA_OF_ASC_NODE": 129.1107, "ARG_OF_PERICENTER": 203.06, "MEAN_ANOMALY": 157.0089, "EPHEMERIS_TYPE": 0, "CLASSIFICATION_TYPE": "U", "NORAD_CAT_ID": 66913, "ELEMENT_SET_NO": 999, "REV_AT_EPOCH": 120, "BSTAR": 0.00073861836, "MEAN_MOTION_DOT": 0.00015511, "MEAN_MOTION_DDOT": 0}, "tle": {"line1": "1 66913U 25284A   25347.25572498  .00015511  00000+0  73862-3 0  9990", "line2": "2 66913  80.4043 129.1107 0012035 203.0600 157.0089 15.18984004  1202"}}, "geometry": {"type": "Point", "coordinates": [-54.86020278107619, 17.718109779526603]}}, {"type": "Feature", "properties": {"norad_id": 66914, "name": "2025-284B", "group": "last-30-days", "lat": 15.833959653736146, "lon": -54.51060528104391, "alt_km": 508.67312011390095, "timestamp": "2025-12-13T22:39:28.446691+00:00", "meta": {"OBJECT_NAME": "2025-284B", "OBJECT_ID": "2025-284B", "EPOCH": "2025-12-13T07:42:33.426144", "MEAN_MOTION": 15.18936276, "ECCENTRICITY": 0.00083279, "INCLINATION": 80.4051, "RA_OF_ASC_NODE": 129.0287, "ARG_OF_PERICENTER": 245.2147, "MEAN_ANOMALY": 114.8215, "EPHEMERIS_TYPE": 0, "CLASSIFICATION_TYPE": "U", "NORAD_CAT_ID": 66914, "ELEMENT_SET_NO": 999, "REV_AT_EPOCH": 121, "BSTAR": 0.00071189398, "MEAN_MOTION_DOT": 0.00014914, "MEAN_MOTION_DDOT": 0}, "tle": {"line1": "1 66914U 25284B   25347.32122021  .00014914  00000+0  71189-3 0  9998", "line2": "2 66914  80.4051 129.0287 0008327 245.2147 114.8215 15.18936276  1214"}}, "geometry": {"type": "Point", "coordinates": [-54.51060528104391, 15.833959653736146]}}]}